[
  "TORO                    \r\n1 60530U 24149BQ  26192.77943753  .00000568  00000+0  54974-4 0  9990\r\n2 60530  97.6782 266.9883 0001275  92.1418 267.9950 14.96512370103636\r\n",
  "TORO3                   \r\n1 68481U 26067BT  26193.44763100  .00000350  00000+0  39824-4 0  9991\r\n2 68481  97.7686 151.4519 0001836 201.2334 158.8809 14.92164834 15491\r\n",
  "SATORO-T3               \r\n1 64589U 25135BP  26193.53997526  .00001465  00000+0  14122-3 0  9993\r\n2 64589  97.7736 307.8118 0003608 236.7618 123.3256 14.94431180 57695\r\n",
  "GEMINI-POLLUX           \r\n1 69000U 26100W   26192.66957249  .00001273  00000+0  13006-3 0  9997\r\n2 69000  97.7297  89.6884 0001973 113.1444 246.9984 14.92315954 10353\r\n",
  "FORMOSAT-2 (ROCSAT 2)   \r\n1 28254U 04018A   26193.53727701 -.00000262  00000+0 -14577-3 0  9995\r\n2 28254  98.8459 160.2416 0000708 218.8813 252.5090 14.01253141132306\r\n",
  "FORMOSAT-3 FM6          \r\n1 29047U 06011A   26193.54051843  .00000193  00000+0  87479-4 0  9992\r\n2 29047  71.9765 259.3769 0048804 196.0521 163.9073 14.31417416 58035\r\n",
  "FORMOSAT-3 FM1          \r\n1 29048U 06011B   26193.32484608  .00000176  00000+0  81123-4 0  9999\r\n2 29048  71.9649 168.2080 0041455 159.3941 200.8880 14.31406408 60370\r\n",
  "FORMOSAT-3 FM5          \r\n1 29049U 06011C   26193.58447089  .00000217  00000+0  96584-4 0  9993\r\n2 29049  72.0194 351.9484 0033463 165.4382 194.7729 14.31423305 56300\r\n",
  "FORMOSAT-3 FM3          \r\n1 29050U 06011D   26193.48367117  .00000561  00000+0  10779-3 0  9990\r\n2 29050  72.0125 257.5009 0044856 240.2544 119.4147 14.67012133 80082\r\n",
  "FORMOSAT-3 FM4          \r\n1 29051U 06011E   26193.61216945  .00000134  00000+0  64353-4 0  9992\r\n2 29051  72.0025 249.3880 0064656  45.2300 315.4072 14.31556519 58904\r\n",
  "FORMOSAT-3 FM2          \r\n1 29052U 06011F   26193.53984528  .00000192  00000+0  86916-4 0  9996\r\n2 29052  72.0338 330.4300 0037420 117.4054 243.0899 14.31637435 56412\r\n",
  "PACE                    \r\n1 40022U 14033N   26193.55996945  .00003136  00000+0  19176-3 0  9991\r\n2 40022  98.1247 199.9938 0007552 124.4462 235.7481 15.11056240656867\r\n",
  "FORMOSAT-5              \r\n1 42920U 17049A   26193.56923678  .00000040  00000+0  21150-4 0  9991\r\n2 42920  98.2247 268.3144 0011509  11.8517 348.2947 14.50907388470359\r\n",
  "FORMOSAT 7-3            \r\n1 44343U 19036E   26193.56034507  .00002776  00000+0  14580-3 0  9990\r\n2 44343  24.0004   3.8842 0000410 187.8054 172.2443 15.09982287387083\r\n",
  "FORMOSAT 7-1            \r\n1 44349U 19036L   26193.38348106  .00001367  00000+0  91205-4 0  9994\r\n2 44349  23.9966 222.5156 0001059 107.3365 252.7252 14.96605914388430\r\n",
  "FORMOSAT 7-4            \r\n1 44350U 19036M   26193.60608600  .00001465  00000+0  99534-4 0  9991\r\n2 44350  23.9982 283.1246 0001349 117.8855 242.1782 14.96604378387887\r\n",
  "FORMOSAT 7-2            \r\n1 44351U 19036N   26193.56177763  .00001575  00000+0  10900-3 0  9999\r\n2 44351  23.9995 337.7372 0000792 110.7842 249.2743 14.96602845387395\r\n",
  "FORMOSAT 7-6            \r\n1 44353U 19036Q   26193.22799999  .00001523  00000+0  10449-3 0  9996\r\n2 44353  23.9964 160.7962 0001246  45.8851 314.1752 14.96605816385576\r\n",
  "FORMOSAT 7-5            \r\n1 44358U 19036V   26193.00538351  .00001610  00000+0  11211-3 0  9995\r\n2 44358  23.9982 101.0484 0000489 115.9872 244.0679 14.96584241386071\r\n",
  "FORMOSAT-7R (TRITON)    \r\n1 58017U 23155B   26193.20181546  .00000688  00000+0  74978-4 0  9995\r\n2 58017  97.8352 274.4205 0001763  56.2296 303.9090 14.91189335149954\r\n",
  "NIGHTJAR                \r\n1 60535U 24149BV  26193.15630748  .00002245  00000+0  18933-3 0  9993\r\n2 60535  97.6834 269.5122 0002494 102.3217 257.8285 14.99155568146618\r\n",
  "IRIS-F3                 \r\n1 62619U 25009L   26192.75711921  .00004430  00000+0  16820-3 0  9993\r\n2 62619  97.4046 273.4106 0005318 224.7785 135.3025 15.27338800 82579\r\n",
  "IRIS-F2                 \r\n1 62684U 25009CD  26193.16750590  .00009174  00000+0  34530-3 0  9994\r\n2 62684  97.3890 272.6960 0004164 248.0293 112.0504 15.27331976140270\r\n",
  "FORMOSAT-8A             \r\n1 66666U 25276A   26193.14249392  .00000969  00000+0  81094-4 0  9996\r\n2 66666  97.6547 267.0100 0005174 139.7149 220.4460 15.00746270 33801\r\n",
  "LILIUM-2                \r\n1 66679U 25276P   26193.15611920  .00001706  00000+0  86963-4 0  9991\r\n2 66679  97.4148 265.6996 0004337 282.2042  77.8706 15.18089117 34181\r\n",
  "BLACK KITE-1            \r\n1 66741U 25276CD  26193.18142087  .00004172  00000+0  19150-3 0  9990\r\n2 66741  97.4242 266.5379 0004125 254.2136 105.8645 15.20949739 31526\r\n",
  "T.MICROSAT-1            \r\n1 66766U 25276DE  26193.14238002  .00003599  00000+0  16504-3 0  9998\r\n2 66766  97.4158 266.4822 0002221 103.1647 256.9837 15.21077801 34230\r\n",
  "LILIUM-3                \r\n1 66770U 25276DJ  26193.18180632  .00001233  00000+0  61059-4 0  9991\r\n2 66770  97.4239 266.5275 0002882 134.5226 225.6245 15.19631678 34222\r\n",
  "T.MICROSAT-2            \r\n1 68433U 26067T   26193.31536847  .00002911  00000+0  14801-3 0  9992\r\n2 68433  97.4579 151.3089 0005175 355.9789   4.1402 15.17632468 15749\r\n",
  "PARUS-6U1               \r\n1 68456U 26067AS  26193.30905850  .00003194  00000+0  16142-3 0  9994\r\n2 68456  97.4560 151.2918 0005011   1.8345 358.2906 15.17774947 15749\r\n",
  "BLACK KITE-2            \r\n1 68474U 26067BL  26193.42044692  .00001496  00000+0  15045-3 0  9999\r\n2 68474  97.7555 151.3385 0003181 128.6995 231.4509 14.92691118 15493\r\n",
  "PEARL-1B                \r\n1 68980U 26100A   26193.14965671  .00001032  00000+0  11083-3 0  9991\r\n2 68980  97.7336  90.0107 0008798  69.0214 291.1945 14.90659107 10407\r\n",
  "PEARL-1A                \r\n1 68990U 26100L   26193.53281090  .00000926  00000+0  99114-4 0  9994\r\n2 68990  97.7282  90.3908 0006954  81.9427 278.2581 14.91053353 10472\r\n"
]